[{"OBJECT_NAME":"STARLINK-35578","OBJECT_ID":"2025-240Y","EPOCH":"2026-03-09T23:32:30.283584","MEAN_MOTION":15.30218173,"ECCENTRICITY":0.00017757,"INCLINATION":53.1598,"RA_OF_ASC_NODE":61.4029,"ARG_OF_PERICENTER":94.6206,"MEAN_ANOMALY":265.4998,"EPHEMERIS_TYPE":0,"CLASSIFICATION_TYPE":"U","NORAD_CAT_ID":66168,"ELEMENT_SET_NO":999,"REV_AT_EPOCH":2203,"BSTAR":0.00089186102,"MEAN_MOTION_DOT":0.00026163,"MEAN_MOTION_DDOT":0},{"OBJECT_NAME":"TRANSPORTER-1 OBJECT M","OBJECT_ID":"2021-006M","EPOCH":"2026-03-09T22:05:37.843296","MEAN_MOTION":15.3227845,"ECCENTRICITY":0.00102759,"INCLINATION":97.2377,"RA_OF_ASC_NODE":116.7915,"ARG_OF_PERICENTER":187.5492,"MEAN_ANOMALY":172.5597,"EPHEMERIS_TYPE":0,"CLASSIFICATION_TYPE":"U","NORAD_CAT_ID":47424,"ELEMENT_SET_NO":999,"REV_AT_EPOCH":28439,"BSTAR":0.00023985652,"MEAN_MOTION_DOT":7.411e-5,"MEAN_MOTION_DDOT":0}]
